{"fetched_at":"2026-03-29T16:36:15Z","count":15609,"tles":[{"name":"STARLINK-33774","line1":"1 63721U 25087AA  26087.54295630  .00029806  00000+0  10144-2 0  9994","line2":"2 63721  53.1586 132.1617 0001210  84.6028 275.5111 15.30202094 52085","category":"Starlink"}]}