{
  "norad_id": 63721,
  "name": "STARLINK-33774",
  "history": [
    {
      "epoch": "2026-03-28T13:01:51.424320",
      "apogee_km": 476.0380719637724,
      "perigee_km": 474.3795622760281,
      "latitude_deg": -3.815921595478316,
      "longitude_deg": -115.77619519992732,
      "semi_major_axis_km": 6853.3458171199,
      "eccentricity": 0.000121,
      "inclination_deg": 53.1586,
      "raan_deg": 132.1617,
      "arg_perigee_deg": 84.6028,
      "mean_anomaly_deg": 275.5111,
      "mean_motion_rev_day": 15.30202094
    }
  ]
}